{"type": "FeatureCollection", "features": [ {"type": "Feature", "properties": {"norad_id": 58662, "name": "TIANMU-1 21", "group": "weather", "lat": -51.39883085824862, "lon": 113.72716586890151, "alt_km": 476.18609357400874, "timestamp": "2025-12-16T21:38:56.812361+00:00", "meta": {"OBJECT_NAME": "TIANMU-1 21", "OBJECT_ID": "2023-208C", "EPOCH": "2025-12-16T07:45:50.970240", "MEAN_MOTION": 15.3163013, "ECCENTRICITY": 0.0005994, "INCLINATION": 97.4372, "RA_OF_ASC_NODE": 103.729, "ARG_OF_PERICENTER": 244.9305, "MEAN_ANOMALY": 115.1315, "EPHEMERIS_TYPE": 0, "CLASSIFICATION_TYPE": "U", "NORAD_CAT_ID": 58662, "ELEMENT_SET_NO": 999, "REV_AT_EPOCH": 10954, "BSTAR": 0.00028838494, "MEAN_MOTION_DOT": 8.735e-05, "MEAN_MOTION_DDOT": 0}, "tle": {"line1": "1 58662U 23208C   25350.32350660  .00008735  00000+0  28838-3 0  9996", "line2": "2 58662  97.4372 103.7290 0005994 244.9305 115.1315 15.31630130109546"}}, "geometry": {"type": "Point", "coordinates": [113.72716586890151, -51.39883085824862]}}, {"type": "Feature", "properties": {"norad_id": 58663, "name": "TIANMU-1 22", "group": "weather", "lat": 8.765678734118557, "lon": -76.85774357545583, "alt_km": 484.81507577961384, "timestamp": "2025-12-16T21:38:56.812371+00:00", "meta": {"OBJECT_NAME": "TIANMU-1 22", "OBJECT_ID": "2023-208D", "EPOCH": "2025-12-16T08:19:34.587840", "MEAN_MOTION": 15.27667488, "ECCENTRICITY": 0.00026659, "INCLINATION": 97.4383, "RA_OF_ASC_NODE": 101.4342, "ARG_OF_PERICENTER": 268.1916, "MEAN_ANOMALY": 91.9018, "EPHEMERIS_TYPE": 0, "CLASSIFICATION_TYPE": "U", "NORAD_CAT_ID": 58663, "ELEMENT_SET_NO": 999, "REV_AT_EPOCH": 10938, "BSTAR": 0.00025070538, "MEAN_MOTION_DOT": 6.705e-05, "MEAN_MOTION_DDOT": 0}, "tle": {"line1": "1 58663U 23208D   25350.34692810  .00006705  00000+0  25071-3 0  9996", "line2": "2 58663  97.4383 101.4342 0002665 268.1916  91.9018 15.27667488109384"}}, "geometry": {"type": "Point", "coordinates": [-76.85774357545583, 8.765678734118557]}}, {"type": "Feature", "properties": {"norad_id": 58700, "name": "TIANMU-1 15", "group": "weather", "lat": -71.6731681089934, "lon": -30.95582095767593, "alt_km": 495.8871027264513, "timestamp": "2025-12-16T21:38:56.812381+00:00", "meta": {"OBJECT_NAME": "TIANMU-1 15", "OBJECT_ID": "2024-004A", "EPOCH": "2025-12-15T13:02:10.173984", "MEAN_MOTION": 15.24523626, "ECCENTRICITY": 0.00056536, "INCLINATION": 97.4626, "RA_OF_ASC_NODE": 171.0022, "ARG_OF_PERICENTER": 279.9728, "MEAN_ANOMALY": 80.0871, "EPHEMERIS_TYPE": 0, "CLASSIFICATION_TYPE": "U", "NORAD_CAT_ID": 58700, "ELEMENT_SET_NO": 999, "REV_AT_EPOCH": 10777, "BSTAR": 0.00021318175, "MEAN_MOTION_DOT": 5.174e-05, "MEAN_MOTION_DDOT": 0}, "tle": {"line1": "1 58700U 24004A   25349.54317331  .00005174  00000+0  21318-3 0  9994", "line2": "2 58700  97.4626 171.0022 0005653 279.9728  80.0871 15.24523626107774"}}, "geometry": {"type": "Point", "coordinates": [-30.95582095767593, -71.6731681089934]}}, {"type": "Feature", "properties": {"norad_id": 58701, "name": "TIANMU-1 16", "group": "weather", "lat": -25.108708807862435, "lon": 175.25957764561875, "alt_km": 496.37480118319127, "timestamp": "2025-12-16T21:38:56.812393+00:00", "meta": {"OBJECT_NAME": "TIANMU-1 16", "OBJECT_ID": "2024-004B", "EPOCH": "2025-12-16T07:34:55.900128", "MEAN_MOTION": 15.244826, "ECCENTRICITY": 0.00043482, "INCLINATION": 97.4564, "RA_OF_ASC_NODE": 171.1576, "ARG_OF_PERICENTER": 280.0852, "MEAN_ANOMALY": 79.9895, "EPHEMERIS_TYPE": 0, "CLASSIFICATION_TYPE": "U", "NORAD_CAT_ID": 58701, "ELEMENT_SET_NO": 999, "REV_AT_EPOCH": 10789, "BSTAR": 0.00022646785, "MEAN_MOTION_DOT": 5.493e-05, "MEAN_MOTION_DDOT": 0}, "tle": {"line1": "1 58701U 24004B   25350.31592477  .00005493  00000+0  22647-3 0  9998", "line2": "2 58701  97.4564 171.1576 0004348 280.0852  79.9895 15.24482600107894"}}, "geometry": {"type": "Point", "coordinates": [175.25957764561875, -25.108708807862435]}}, {"type": "Feature", "properties": {"norad_id": 58702, "name": "TIANMU-1 17", "group": "weather", "lat": 59.03774406931113, "lon": 159.5381218751876, "alt_km": 488.3505854026471, "timestamp": "2025-12-16T21:38:56.812404+00:00", "meta": {"OBJECT_NAME": "TIANMU-1 17", "OBJECT_ID": "2024-004C", "EPOCH": "2025-12-16T08:47:07.033632", "MEAN_MOTION": 15.24527274, "ECCENTRICITY": 0.00035621, "INCLINATION": 97.4598, "RA_OF_ASC_NODE": 171.6194, "ARG_OF_PERICENTER": 283.224, "MEAN_ANOMALY": 76.86, "EPHEMERIS_TYPE": 0, "CLASSIFICATION_TYPE": "U", "NORAD_CAT_ID": 58702, "ELEMENT_SET_NO": 999, "REV_AT_EPOCH": 10789, "BSTAR": 0.0002152057, "MEAN_MOTION_DOT": 5.223e-05, "MEAN_MOTION_DDOT": 0}, "tle": {"line1": "1 58702U 24004C   25350.36605363  .00005223  00000+0  21521-3 0  9994", "line2": "2 58702  97.4598 171.6194 0003562 283.2240  76.8600 15.24527274107893"}}, "geometry": {"type": "Point", "coordinates": [159.5381218751876, 59.03774406931113]}}, {"type": "Feature", "properties": {"norad_id": 58703, "name": "TIANMU-1 18", "group": "weather", "lat": 28.44862110086519, "lon": -3.5787320751605054, "alt_km": 492.30573945468495, "timestamp": "2025-12-16T21:38:56.812420+00:00", "meta": {"OBJECT_NAME": "TIANMU-1 18", "OBJECT_ID": "2024-004D", "EPOCH": "2025-12-16T08:23:08.243808", "MEAN_MOTION": 15.24512778, "ECCENTRICITY": 0.00029002, "INCLINATION": 97.4616, "RA_OF_ASC_NODE": 171.799, "ARG_OF_PERICENTER": 282.6632, "MEAN_ANOMALY": 77.4281, "EPHEMERIS_TYPE": 0, "CLASSIFICATION_TYPE": "U", "NORAD_CAT_ID": 58703, "ELEMENT_SET_NO": 999, "REV_AT_EPOCH": 10789, "BSTAR": 0.00020618067, "MEAN_MOTION_DOT": 4.998e-05, "MEAN_MOTION_DDOT": 0}, "tle": {"line1": "1 58703U 24004D   25350.34940097  .00004998  00000+0  20618-3 0  9993", "line2": "2 58703  97.4616 171.7990 0002900 282.6632  77.4281 15.24512778107898"}}, "geometry": {"type": "Point", "coordinates": [-3.5787320751605054, 28.44862110086519]}}, {"type": "Feature", "properties": {"norad_id": 58990, "name": "INSAT-3DS", "group": "weather", "lat": 0.02699350334288357, "lon": 132.5966198675965, "alt_km": 35789.331912191614, "timestamp": "2025-12-16T21:38:56.812434+00:00", "meta": {"OBJECT_NAME": "INSAT-3DS", "OBJECT_ID": "2024-033A", "EPOCH": "2025-12-16T03:28:27.148224", "MEAN_MOTION": 1.00272657, "ECCENTRICITY": 0.00011426, "INCLINATION": 0.0465, "RA_OF_ASC_NODE": 121.3166, "ARG_OF_PERICENTER": 147.119, "MEAN_ANOMALY": 310.8097, "EPHEMERIS_TYPE": 0, "CLASSIFICATION_TYPE": "U", "NORAD_CAT_ID": 58990, "ELEMENT_SET_NO": 999, "REV_AT_EPOCH": 4523, "BSTAR": 0, "MEAN_MOTION_DOT": -1.33e-06, "MEAN_MOTION_DDOT": 0}, "tle": {"line1": "1 58990U 24033A   25350.14475866 -.00000133  00000+0  00000+0 0  9995", "line2": "2 58990   0.0465 121.3166 0001142 147.1190 310.8097  1.00272657 45231"}}, "geometry": {"type": "Point", "coordinates": [132.5966198675965, 0.02699350334288357]}}, {"type": "Feature", "properties": {"norad_id": 59051, "name": "METEOR-M2 4", "group": "weather", "lat": -57.65862157007282, "lon": 113.7897592923658, "alt_km": 825.813309979183, "timestamp": "2025-12-16T21:38:56.812445+00:00", "meta": {"OBJECT_NAME": "METEOR-M2 4", "OBJECT_ID": "2024-039A", "EPOCH": "2025-12-16T08:42:44.488224", "MEAN_MOTION": 14.22401923, "ECCENTRICITY": 0.00068412, "INCLINATION": 98.677, "RA_OF_ASC_NODE": 307.2151, "ARG_OF_PERICENTER": 348.1311, "MEAN_ANOMALY": 11.9704, "EPHEMERIS_TYPE": 0, "CLASSIFICATION_TYPE": "U", "NORAD_CAT_ID": 59051, "ELEMENT_SET_NO": 999, "REV_AT_EPOCH": 9327, "BSTAR": 3.0267864e-05, "MEAN_MOTION_DOT": 2.4e-07, "MEAN_MOTION_DDOT": 0}, "tle": {"line1": "1 59051U 24039A   25350.36301491  .00000024  00000+0  30268-4 0  9998", "line2": "2 59051  98.6770 307.2151 0006841 348.1311  11.9704 14.22401923 93279"}}, "geometry": {"type": "Point", "coordinates": [113.7897592923658, -57.65862157007282]}}, {"type": "Feature", "properties": {"norad_id": 60133, "name": "GOES 19", "group": "weather", "lat": 0.0005664226386285681, "lon": -24.673161427940798, "alt_km": 35781.727976643946, "timestamp": "2025-12-16T21:38:56.812456+00:00", "meta": {"OBJECT_NAME": "GOES 19", "OBJECT_ID": "2024-119A", "EPOCH": "2025-12-16T06:08:56.774688", "MEAN_MOTION": 1.00272265, "ECCENTRICITY": 0.00010563, "INCLINATION": 0.0184, "RA_OF_ASC_NODE": 164.8889, "ARG_OF_PERICENTER": 155.215, "MEAN_ANOMALY": 142.094, "EPHEMERIS_TYPE": 0, "CLASSIFICATION_TYPE": "U", "NORAD_CAT_ID": 60133, "ELEMENT_SET_NO": 999, "REV_AT_EPOCH": 513, "BSTAR": 0, "MEAN_MOTION_DOT": -2.25e-06, "MEAN_MOTION_DDOT": 0}, "tle": {"line1": "1 60133U 24119A   25350.25621267 -.00000225  00000+0  00000+0 0  9994", "line2": "2 60133   0.0184 164.8889 0001056 155.2150 142.0940  1.00272265  5137"}}, "geometry": {"type": "Point", "coordinates": [-24.673161427940798, 0.0005664226386285681]}}, {"type": "Feature", "properties": {"norad_id": 65815, "name": "FENGYUN 3H", "group": "weather", "lat": 76.98716210968607, "lon": -110.8495991583294, "alt_km": 817.9465070818087, "timestamp": "2025-12-16T21:38:56.812467+00:00", "meta": {"OBJECT_NAME": "FENGYUN 3H", "OBJECT_ID": "2025-219A", "EPOCH": "2025-12-16T07:44:34.564992", "MEAN_MOTION": 14.19905788, "ECCENTRICITY": 6.629e-05, "INCLINATION": 98.6588, "RA_OF_ASC_NODE": 289.8353, "ARG_OF_PERICENTER": 99.8632, "MEAN_ANOMALY": 260.262, "EPHEMERIS_TYPE": 0, "CLASSIFICATION_TYPE": "U", "NORAD_CAT_ID": 65815, "ELEMENT_SET_NO": 999, "REV_AT_EPOCH": 1143, "BSTAR": 5.2929853e-05, "MEAN_MOTION_DOT": 6.9e-07, "MEAN_MOTION_DDOT": 0}, "tle": {"line1": "1 65815U 25219A   25350.32262228  .00000069  00000+0  52930-4 0  9993", "line2": "2 65815  98.6588 289.8353 0000662  99.8632 260.2620 14.19905788 11439"}}, "geometry": {"type": "Point", "coordinates": [-110.8495991583294, 76.98716210968607]}}]}